{
  "type": "FeatureCollection",
  "features": [
    {
      "type": "Feature",
      "properties": {
        "tier_id": 4,
        "hazard_level": "Extreme Hazard (>3.0m)",
        "depth_range": "6.32m Peak (~6.1m sustained)",
        "color": "#d62828",
        "study_area": "Machhu Basin: Dam Toe to Morbi & Malia",
        "source": "Machhu-II 2D Hydrodynamic Simulation"
      },
      "geometry": {
        "type": "Polygon",
        "coordinates": [
          [
            [
              70.87502,
              22.75992
            ],
            [
              70.86902,
              22.76792
            ],
            [
              70.86202,
              22.77992
            ],
            [
              70.85302,
              22.79192
            ],
            [
              70.84402,
              22.80592
            ],
            [
              70.83802,
              22.81593
            ],
            [
              70.83202,
              22.82392
            ],
            [
              70.82802,
              22.83492
            ],
            [
              70.82202,
              22.84992
            ],
            [
              70.81102,
              22.86992
            ],
            [
              70.79502,
              22.89692
            ],
            [
              70.77702,
              22.92693
            ],
            [
              70.75702,
              22.95692
            ],
            [
              70.73902,
              22.98193
            ],
            [
              70.74498,
              22.97808
            ],
            [
              70.76298,
              22.95307
            ],
            [
              70.78298,
              22.92308
            ],
            [
              70.80098,
              22.89307
            ],
            [
              70.81697,
              22.86607
            ],
            [
              70.82798,
              22.84607
            ],
            [
              70.83398,
              22.83107
            ],
            [
              70.83798,
              22.82007
            ],
            [
              70.84398,
              22.81208
            ],
            [
              70.84998,
              22.80207
            ],
            [
              70.85898,
              22.78807
            ],
            [
              70.86798,
              22.77607
            ],
            [
              70.87498,
              22.76407
            ],
            [
              70.88098,
              22.75607
            ],
            [
              70.87502,
              22.75992
            ]
          ]
        ]
      }
    },
    {
      "type": "Feature",
      "properties": {
        "tier_id": 3,
        "hazard_level": "High Hazard (1.5\u20133.0m)",
        "depth_range": "1.5 \u2013 3.0m",
        "color": "#e63946",
        "study_area": "Machhu Basin: Dam Toe to Morbi & Malia",
        "source": "Machhu-II 2D Hydrodynamic Simulation"
      },
      "geometry": {
        "type": "Polygon",
        "coordinates": [
          [
            [
              70.87247,
              22.76158
            ],
            [
              70.86647,
              22.76957
            ],
            [
              70.85947,
              22.78158
            ],
            [
              70.85047,
              22.79358
            ],
            [
              70.84147,
              22.80757
            ],
            [
              70.83547,
              22.81758
            ],
            [
              70.82947,
              22.82558
            ],
            [
              70.82547,
              22.83657
            ],
            [
              70.81947,
              22.85158
            ],
            [
              70.80847,
              22.87157
            ],
            [
              70.79247,
              22.89858
            ],
            [
              70.77447,
              22.92858
            ],
            [
              70.75447,
              22.95857
            ],
            [
              70.73647,
              22.98358
            ],
            [
              70.74753,
              22.97642
            ],
            [
              70.76553,
              22.95142
            ],
            [
              70.78553,
              22.92142
            ],
            [
              70.80353,
              22.89142
            ],
            [
              70.81952,
              22.86442
            ],
            [
              70.83053,
              22.84442
            ],
            [
              70.83653,
              22.82942
            ],
            [
              70.84052,
              22.81842
            ],
            [
              70.84652,
              22.81042
            ],
            [
              70.85252,
              22.80042
            ],
            [
              70.86153,
              22.78642
            ],
            [
              70.87053,
              22.77442
            ],
            [
              70.87753,
              22.76242
            ],
            [
              70.88353,
              22.75442
            ],
            [
              70.87247,
              22.76158
            ]
          ]
        ]
      }
    },
    {
      "type": "Feature",
      "properties": {
        "tier_id": 2,
        "hazard_level": "Moderate Hazard (0.5\u20131.5m)",
        "depth_range": "0.5 \u2013 1.5m",
        "color": "#f4a261",
        "study_area": "Machhu Basin: Dam Toe to Morbi & Malia",
        "source": "Machhu-II 2D Hydrodynamic Simulation"
      },
      "geometry": {
        "type": "Polygon",
        "coordinates": [
          [
            [
              70.86907,
              22.76377
            ],
            [
              70.86307,
              22.77177
            ],
            [
              70.85607,
              22.78377
            ],
            [
              70.84707,
              22.79577
            ],
            [
              70.83807,
              22.80977
            ],
            [
              70.83207,
              22.81977
            ],
            [
              70.82607,
              22.82777
            ],
            [
              70.82207,
              22.83877
            ],
            [
              70.81607,
              22.85377
            ],
            [
              70.80507,
              22.87377
            ],
            [
              70.78907,
              22.90077
            ],
            [
              70.77107,
              22.93078
            ],
            [
              70.75108,
              22.96077
            ],
            [
              70.73307,
              22.98578
            ],
            [
              70.75093,
              22.97423
            ],
            [
              70.76893,
              22.94922
            ],
            [
              70.78893,
              22.91923
            ],
            [
              70.80693,
              22.88922
            ],
            [
              70.82292,
              22.86222
            ],
            [
              70.83393,
              22.84222
            ],
            [
              70.83993,
              22.82722
            ],
            [
              70.84392,
              22.81622
            ],
            [
              70.84992,
              22.80823
            ],
            [
              70.85592,
              22.79822
            ],
            [
              70.86492,
              22.78422
            ],
            [
              70.87392,
              22.77222
            ],
            [
              70.88093,
              22.76022
            ],
            [
              70.88693,
              22.75222
            ],
            [
              70.86907,
              22.76377
            ]
          ]
        ]
      }
    },
    {
      "type": "Feature",
      "properties": {
        "tier_id": 1,
        "hazard_level": "Low Hazard (<0.5m)",
        "depth_range": "0.1 \u2013 0.5m",
        "color": "#2a9d8f",
        "study_area": "Machhu Basin: Dam Toe to Morbi & Malia",
        "source": "Machhu-II 2D Hydrodynamic Simulation"
      },
      "geometry": {
        "type": "Polygon",
        "coordinates": [
          [
            [
              70.86525,
              22.76625
            ],
            [
              70.85925,
              22.77425
            ],
            [
              70.85225,
              22.78625
            ],
            [
              70.84325,
              22.79825
            ],
            [
              70.83425,
              22.81225
            ],
            [
              70.82825,
              22.82225
            ],
            [
              70.82225,
              22.83025
            ],
            [
              70.81825,
              22.84125
            ],
            [
              70.81225,
              22.85625
            ],
            [
              70.80125,
              22.87625
            ],
            [
              70.78525,
              22.90325
            ],
            [
              70.76725,
              22.93325
            ],
            [
              70.74725,
              22.96325
            ],
            [
              70.72925,
              22.98825
            ],
            [
              70.75475,
              22.97175
            ],
            [
              70.77275,
              22.94675
            ],
            [
              70.79275,
              22.91675
            ],
            [
              70.81075,
              22.88675
            ],
            [
              70.82675,
              22.85975
            ],
            [
              70.83775,
              22.83975
            ],
            [
              70.84375,
              22.82475
            ],
            [
              70.84775,
              22.81375
            ],
            [
              70.85375,
              22.80575
            ],
            [
              70.85975,
              22.79575
            ],
            [
              70.86875,
              22.78175
            ],
            [
              70.87775,
              22.76975
            ],
            [
              70.88475,
              22.75775
            ],
            [
              70.89075,
              22.74975
            ],
            [
              70.86525,
              22.76625
            ]
          ]
        ]
      }
    }
  ]
}