{"type": "FeatureCollection", "features": [{"type": "Feature", "geometry": {"type": "Point", "coordinates": [70.8316013, 22.8159425]}, "properties": {"addr:district": "Rajkot", "addr:full": "Morbi", "addr:postcode": "363641", "addr:state": "Gujarat", "amenity": "hospital", "name": "Civil Hospital, Rajkot", "source": "OpenStreetMap contributors", "osm_id": "node/6977126264", "license": "ODbL 1.0", "candidate_only": true}}, {"type": "Feature", "geometry": {"type": "Point", "coordinates": [70.8299873, 22.8139881]}, "properties": {"addr:district": "Rajkot", "addr:full": "Ram Chowk, Savsar Plot, Main Road", "addr:postcode": "363641", "addr:state": "Gujarat", "amenity": "hospital", "name": "Drashti Hospital, Rajkot", "source": "OpenStreetMap contributors", "osm_id": "node/6978577823", "license": "ODbL 1.0", "candidate_only": true}}, {"type": "Feature", "geometry": {"type": "Point", "coordinates": [70.8284839, 22.8119972]}, "properties": {"addr:district": "Rajkot", "addr:full": "Sanala Road, Morbi", "addr:postcode": "363642", "addr:state": "Gujarat", "amenity": "hospital", "name": "Devshree Hospital", "source": "OpenStreetMap contributors", "osm_id": "node/6981883358", "license": "ODbL 1.0", "candidate_only": true}}, {"type": "Feature", "geometry": {"type": "Point", "coordinates": [70.8290331, 22.8136371]}, "properties": {"addr:district": "Rajkot", "addr:full": "16, Savsar Plot, Sanala Road, Opposite Jain Upashary", "addr:postcode": "363641", "addr:state": "Gujarat", "amenity": "hospital", "name": "Dr. R. G. Rupala Ortho Hospital - Morbi", "source": "OpenStreetMap contributors", "osm_id": "node/6983705280", "license": "ODbL 1.0", "candidate_only": true}}, {"type": "Feature", "geometry": {"type": "Point", "coordinates": [70.8290063, 22.815123]}, "properties": {"addr:district": "Rajkot", "addr:full": "7, Savsar Plot", "addr:postcode": "363641", "addr:state": "Gujarat", "amenity": "hospital", "name": "Parth Hospital, Morbi", "source": "OpenStreetMap contributors", "osm_id": "node/6987246240", "license": "ODbL 1.0", "candidate_only": true}}, {"type": "Feature", "geometry": {"type": "Point", "coordinates": [70.8287877, 22.8176756]}, "properties": {"addr:district": "Rajkot", "addr:full": "7,Savsar Plot,Morbi", "addr:postcode": "363641", "addr:state": "Gujarat", "amenity": "hospital", "name": "Jivandeep Hospital, Rajkot", "source": "OpenStreetMap contributors", "osm_id": "node/6988072337", "license": "ODbL 1.0", "candidate_only": true}}, {"type": "Feature", "geometry": {"type": "Point", "coordinates": [70.827666, 22.812318]}, "properties": {"addr:district": "Morbi", "addr:full": "Sardar Nagar, Morbi", "addr:postcode": "363641", "addr:state": "Gujarat", "amenity": "hospital", "name": "Killol Children Hospital", "source": "OpenStreetMap contributors", "osm_id": "node/7861787443", "license": "ODbL 1.0", "candidate_only": true}}, {"type": "Feature", "geometry": {"type": "Point", "coordinates": [70.8298044, 22.8157736]}, "properties": {"addr:district": "Morbi", "addr:full": "Sardar Nagar, Morbi", "addr:postcode": "363641", "addr:state": "Gujarat", "amenity": "hospital", "name": "Dr. Bheela Hospital", "source": "OpenStreetMap contributors", "osm_id": "node/7861787446", "license": "ODbL 1.0", "candidate_only": true}}, {"type": "Feature", "geometry": {"type": "Point", "coordinates": [70.829592, 22.815488]}, "properties": {"addr:district": "Morbi", "addr:full": "Sardar Nagar, Morbi", "addr:postcode": "363641", "addr:state": "Gujarat", "amenity": "hospital", "name": "Radhe Krishna Hospital", "source": "OpenStreetMap contributors", "osm_id": "node/7861787447", "license": "ODbL 1.0", "candidate_only": true}}, {"type": "Feature", "geometry": {"type": "Point", "coordinates": [70.825737, 22.8108008]}, "properties": {"addr:district": "Morbi", "addr:full": "Sardar Nagar, Morbi", "addr:postcode": "363641", "addr:state": "Gujarat", "amenity": "hospital", "name": "Janki Hospital", "source": "OpenStreetMap contributors", "osm_id": "node/7861787448", "license": "ODbL 1.0", "candidate_only": true}}, {"type": "Feature", "geometry": {"type": "Point", "coordinates": [70.82879, 22.817944]}, "properties": {"addr:district": "Morbi", "addr:full": "Morbi", "addr:postcode": "363631", "addr:state": "Gujarat", "amenity": "hospital", "name": "Shubh Hospital & Heart Care", "source": "OpenStreetMap contributors", "osm_id": "node/7861787449", "license": "ODbL 1.0", "candidate_only": true}}, {"type": "Feature", "geometry": {"type": "Point", "coordinates": [70.8291364, 22.8155229]}, "properties": {"addr:district": "Morbi", "addr:full": "Sardar Nagar, Morbi", "addr:postcode": "363641", "addr:state": "Gujarat", "amenity": "hospital", "name": "Madhav Hospital - Cardiac & Critical Care", "source": "OpenStreetMap contributors", "osm_id": "node/7861787451", "license": "ODbL 1.0", "candidate_only": true}}, {"type": "Feature", "geometry": {"type": "Point", "coordinates": [70.8313419, 22.8176692]}, "properties": {"addr:district": "Morbi", "addr:full": "Sardar Nagar, Morbi", "addr:postcode": "363641", "addr:state": "Gujarat", "amenity": "hospital", "name": "Dr. Ketan Hindocha", "source": "OpenStreetMap contributors", "osm_id": "node/7861787452", "license": "ODbL 1.0", "candidate_only": true}}, {"type": "Feature", "geometry": {"type": "Point", "coordinates": [70.8538695, 22.8364483]}, "properties": {"addr:district": "Morbi", "addr:full": "Morbi", "addr:postcode": "363642", "addr:state": "Gujarat", "amenity": "hospital", "name": "Samarpan Multispeciality Hospital", "source": "OpenStreetMap contributors", "osm_id": "node/7861787455", "license": "ODbL 1.0", "candidate_only": true}}, {"type": "Feature", "geometry": {"type": "Point", "coordinates": [70.828811, 22.8179044]}, "properties": {"addr:district": "Morbi", "addr:full": "Sardar Nagar, Morbi", "addr:postcode": "363641", "addr:state": "Gujarat", "amenity": "hospital", "name": "Dr. Hemal Patel Orthopaedic Hospital", "source": "OpenStreetMap contributors", "osm_id": "node/7861787456", "license": "ODbL 1.0", "candidate_only": true}}, {"type": "Feature", "geometry": {"type": "Point", "coordinates": [70.84941, 22.826899]}, "properties": {"addr:district": "Morbi", "addr:full": "Morbi", "addr:postcode": "363642", "addr:state": "Gujarat", "amenity": "hospital", "name": "Aditya Hospital", "source": "OpenStreetMap contributors", "osm_id": "node/7861787457", "license": "ODbL 1.0", "candidate_only": true}}, {"type": "Feature", "geometry": {"type": "Point", "coordinates": [70.8258, 22.79848]}, "properties": {"addr:district": "Morbi", "addr:full": "Ravapar, Morbi", "addr:postcode": "363641", "addr:state": "Gujarat", "amenity": "hospital", "name": "Devam Hospital", "source": "OpenStreetMap contributors", "osm_id": "node/7861787459", "license": "ODbL 1.0", "candidate_only": true}}, {"type": "Feature", "geometry": {"type": "Point", "coordinates": [70.827563, 22.81229]}, "properties": {"addr:district": "Morbi", "addr:full": "Sardar Nagar, Morbi", "addr:postcode": "363641", "addr:state": "Gujarat", "amenity": "hospital", "name": "Anuj Hospital", "source": "OpenStreetMap contributors", "osm_id": "node/7861787460", "license": "ODbL 1.0", "candidate_only": true}}, {"type": "Feature", "geometry": {"type": "Point", "coordinates": [70.849542, 22.827579]}, "properties": {"addr:district": "Morbi", "addr:full": "Mahendranagar, Morbi", "addr:postcode": "363641", "addr:state": "Gujarat", "amenity": "hospital", "name": "Ravi General Hospital", "source": "OpenStreetMap contributors", "osm_id": "node/7861787462", "license": "ODbL 1.0", "candidate_only": true}}, {"type": "Feature", "geometry": {"type": "Point", "coordinates": [70.825443, 22.81074]}, "properties": {"addr:district": "Morbi", "addr:full": "Adarsh Society, Sardar Nagar, Morbi", "addr:postcode": "363641", "addr:state": "Gujarat", "amenity": "hospital", "name": "Chirag Surgical Hospital", "source": "OpenStreetMap contributors", "osm_id": "node/7861787467", "license": "ODbL 1.0", "candidate_only": true}}, {"type": "Feature", "geometry": {"type": "Point", "coordinates": [70.829284, 22.814378]}, "properties": {"addr:district": "Morbi", "addr:full": "Sardar Nagar, Morbi", "addr:postcode": "363641", "addr:state": "Gujarat", "amenity": "hospital", "name": "Aashirvad Children's Hospital", "source": "OpenStreetMap contributors", "osm_id": "node/7861787468", "license": "ODbL 1.0", "candidate_only": true}}, {"type": "Feature", "geometry": {"type": "Point", "coordinates": [70.8301971, 22.8144634]}, "properties": {"addr:district": "Morbi", "addr:full": "Morbi", "addr:postcode": "363641", "addr:state": "Gujarat", "amenity": "hospital", "name": "Shyam Hospital", "source": "OpenStreetMap contributors", "osm_id": "node/7861787469", "license": "ODbL 1.0", "candidate_only": true}}, {"type": "Feature", "geometry": {"type": "Point", "coordinates": [70.8265458, 22.8119512]}, "properties": {"addr:district": "Morbi", "addr:full": "Sardar Nagar, Morbi", "addr:postcode": "363641", "addr:state": "Gujarat", "amenity": "hospital", "name": "Masoom Children & Gynec Hospital", "source": "OpenStreetMap contributors", "osm_id": "node/7861787470", "license": "ODbL 1.0", "candidate_only": true}}, {"type": "Feature", "geometry": {"type": "Point", "coordinates": [70.8290716, 22.8135946]}, "properties": {"addr:district": "Morbi", "addr:full": "Sardar Nagar, Morbi", "addr:postcode": "363641", "addr:state": "Gujarat", "amenity": "hospital", "name": "Janani Gynec Hospital", "source": "OpenStreetMap contributors", "osm_id": "node/7861787471", "license": "ODbL 1.0", "candidate_only": true}}, {"type": "Feature", "geometry": {"type": "Point", "coordinates": [70.8295015, 22.8168772]}, "properties": {"addr:district": "Morbi", "addr:full": "Sardar Nagar, Morbi", "addr:postcode": "363641", "addr:state": "Gujarat", "amenity": "hospital", "name": "Dr. Pethapara Hospital", "source": "OpenStreetMap contributors", "osm_id": "node/7861787472", "license": "ODbL 1.0", "candidate_only": true}}, {"type": "Feature", "geometry": {"type": "Point", "coordinates": [70.82957, 22.81458]}, "properties": {"addr:district": "Morbi", "addr:full": "Sardar Nagar, Morbi", "addr:postcode": "363641", "addr:state": "Gujarat", "amenity": "hospital", "name": "Om Orthopaedic Hospital", "source": "OpenStreetMap contributors", "osm_id": "node/7861787473", "license": "ODbL 1.0", "candidate_only": true}}, {"type": "Feature", "geometry": {"type": "Point", "coordinates": [70.8275983, 22.8118784]}, "properties": {"addr:district": "Morbi", "addr:full": "Morbi", "addr:postcode": "363641", "addr:state": "Gujarat", "amenity": "hospital", "name": "Sanjeevani Hospital", "source": "OpenStreetMap contributors", "osm_id": "node/7861787474", "license": "ODbL 1.0", "candidate_only": true}}, {"type": "Feature", "geometry": {"type": "Point", "coordinates": [70.829756, 22.815682]}, "properties": {"addr:district": "Morbi", "addr:full": "Sardar Nagar, Morbi", "addr:postcode": "363641", "addr:state": "Gujarat", "amenity": "hospital", "name": "Manglam Hospital, Morbi", "source": "OpenStreetMap contributors", "osm_id": "node/7861787475", "license": "ODbL 1.0", "candidate_only": true}}, {"type": "Feature", "geometry": {"type": "Point", "coordinates": [70.8297957, 22.8165899]}, "properties": {"addr:district": "Morbi", "addr:full": "Sardar Nagar, Morbi", "addr:postcode": "363641", "addr:state": "Gujarat", "amenity": "hospital", "name": "Shubham Hospital", "source": "OpenStreetMap contributors", "osm_id": "node/7861787476", "license": "ODbL 1.0", "candidate_only": true}}, {"type": "Feature", "geometry": {"type": "Point", "coordinates": [70.8283457, 22.8124982]}, "properties": {"addr:district": "Morbi", "addr:full": "Morbi", "addr:postcode": "363641", "addr:state": "Gujarat", "amenity": "hospital", "name": "Sparsh Children's Hospital", "source": "OpenStreetMap contributors", "osm_id": "node/7861787481", "license": "ODbL 1.0", "candidate_only": true}}, {"type": "Feature", "geometry": {"type": "Point", "coordinates": [70.8314498, 22.8133692]}, "properties": {"addr:district": "Morbi", "addr:full": "Yogeshwar Nagar, Morbi", "addr:postcode": "363641", "addr:state": "Gujarat", "amenity": "hospital", "name": "Maheshwari Child Care Hospital", "source": "OpenStreetMap contributors", "osm_id": "node/7861787486", "license": "ODbL 1.0", "candidate_only": true}}, {"type": "Feature", "geometry": {"type": "Point", "coordinates": [70.827618, 22.811283]}, "properties": {"addr:district": "Morbi", "addr:full": "Morbi", "addr:postcode": "363641", "addr:state": "Gujarat", "amenity": "hospital", "name": "Radhe ENT Hospital & Laser Centre", "source": "OpenStreetMap contributors", "osm_id": "node/7861787490", "license": "ODbL 1.0", "candidate_only": true}}, {"type": "Feature", "geometry": {"type": "Point", "coordinates": [70.8248889, 22.8097508]}, "properties": {"addr:district": "Morbi", "addr:full": "Morbi", "addr:postcode": "363641", "addr:state": "Gujarat", "amenity": "hospital", "name": "Bhadesia Hospital", "source": "OpenStreetMap contributors", "osm_id": "node/7861787492", "license": "ODbL 1.0", "candidate_only": true}}, {"type": "Feature", "geometry": {"type": "Point", "coordinates": [70.833747, 22.815037]}, "properties": {"addr:district": "Morbi", "addr:full": "Waghpara, Morbi", "addr:postcode": "363641", "addr:state": "Gujarat", "amenity": "hospital", "name": "Sadbhavna Hospital", "source": "OpenStreetMap contributors", "osm_id": "node/7861787495", "license": "ODbL 1.0", "candidate_only": true}}, {"type": "Feature", "geometry": {"type": "Point", "coordinates": [70.827019, 22.81135]}, "properties": {"addr:district": "Morbi", "addr:full": "Sardar Nagar, Morbi", "addr:postcode": "363641", "addr:state": "Gujarat", "amenity": "hospital", "name": "Kalrav Hospital", "source": "OpenStreetMap contributors", "osm_id": "node/7861787496", "license": "ODbL 1.0", "candidate_only": true}}, {"type": "Feature", "geometry": {"type": "Point", "coordinates": [70.826098, 22.811485]}, "properties": {"addr:district": "Morbi", "addr:full": "Morbi", "addr:postcode": "363641", "addr:state": "Gujarat", "amenity": "hospital", "name": "Aastha Orthopaedic & Eye Hospital", "source": "OpenStreetMap contributors", "osm_id": "node/7861787497", "license": "ODbL 1.0", "candidate_only": true}}, {"type": "Feature", "geometry": {"type": "Point", "coordinates": [70.84833, 22.818238]}, "properties": {"addr:district": "Morbi", "addr:full": "Morbi", "addr:postcode": "363641", "addr:state": "Gujarat", "amenity": "hospital", "name": "Mayur Hospital", "source": "OpenStreetMap contributors", "osm_id": "node/7861787498", "license": "ODbL 1.0", "candidate_only": true}}, {"type": "Feature", "geometry": {"type": "Point", "coordinates": [70.8258273, 22.8121676]}, "properties": {"addr:district": "Morbi", "addr:full": "Morbi", "addr:postcode": "363641", "addr:state": "Gujarat", "amenity": "hospital", "name": "Aary Hospital", "source": "OpenStreetMap contributors", "osm_id": "node/7861787499", "license": "ODbL 1.0", "candidate_only": true}}, {"type": "Feature", "geometry": {"type": "Point", "coordinates": [70.825621, 22.810906]}, "properties": {"addr:district": "Morbi", "addr:full": "Sardar Nagar, Morbi", "addr:postcode": "363641", "addr:state": "Gujarat", "amenity": "hospital", "name": "Pooja Children's Hospital", "source": "OpenStreetMap contributors", "osm_id": "node/7861787500", "license": "ODbL 1.0", "candidate_only": true}}, {"type": "Feature", "geometry": {"type": "Point", "coordinates": [70.828398, 22.811778]}, "properties": {"addr:district": "Morbi", "addr:full": "Morbi", "addr:postcode": "363641", "addr:state": "Gujarat", "amenity": "hospital", "name": "Sagar Children Hospital", "source": "OpenStreetMap contributors", "osm_id": "node/7861787501", "license": "ODbL 1.0", "candidate_only": true}}, {"type": "Feature", "geometry": {"type": "Point", "coordinates": [70.828012, 22.812213]}, "properties": {"addr:district": "Morbi", "addr:full": "Sardar Nagar, Morbi", "addr:postcode": "363641", "addr:state": "Gujarat", "amenity": "hospital", "name": "Naklank Hospital", "source": "OpenStreetMap contributors", "osm_id": "node/7861787502", "license": "ODbL 1.0", "candidate_only": true}}, {"type": "Feature", "geometry": {"type": "Point", "coordinates": [70.829152, 22.814852]}, "properties": {"addr:district": "Morbi", "addr:full": "Morbi", "addr:postcode": "363641", "addr:state": "Gujarat", "amenity": "hospital", "name": "Amrutam Hospital", "source": "OpenStreetMap contributors", "osm_id": "node/7861787505", "license": "ODbL 1.0", "candidate_only": true}}, {"type": "Feature", "geometry": {"type": "Point", "coordinates": [70.826516, 22.811848]}, "properties": {"addr:district": "Morbi", "addr:full": "Sardar Nagar, Morbi", "addr:postcode": "363641", "addr:state": "Gujarat", "amenity": "hospital", "name": "Apple Hospital", "source": "OpenStreetMap contributors", "osm_id": "node/7861787509", "license": "ODbL 1.0", "candidate_only": true}}, {"type": "Feature", "geometry": {"type": "Point", "coordinates": [70.8297917, 22.8148621]}, "properties": {"addr:district": "Morbi", "addr:full": "Sardar Nagar, Morbi", "addr:postcode": "363641", "addr:state": "Gujarat", "amenity": "hospital", "name": "Kagathara Surgical Hospital", "source": "OpenStreetMap contributors", "osm_id": "node/7861787510", "license": "ODbL 1.0", "candidate_only": true}}, {"type": "Feature", "geometry": {"type": "Point", "coordinates": [70.826527, 22.809938]}, "properties": {"addr:district": "Morbi", "addr:full": "Morbi", "addr:postcode": "363641", "addr:state": "Gujarat", "amenity": "hospital", "name": "Khushbu Hospital", "source": "OpenStreetMap contributors", "osm_id": "node/7861787511", "license": "ODbL 1.0", "candidate_only": true}}, {"type": "Feature", "geometry": {"type": "Point", "coordinates": [70.8265084, 22.8099704]}, "properties": {"addr:district": "Morbi", "addr:full": "Sardar Nagar, Morbi", "addr:postcode": "363641", "addr:state": "Gujarat", "amenity": "hospital", "name": "Sanjivani Medical and Nursing Home", "source": "OpenStreetMap contributors", "osm_id": "node/7861787514", "license": "ODbL 1.0", "candidate_only": true}}, {"type": "Feature", "geometry": {"type": "Point", "coordinates": [70.8295314, 22.8144335]}, "properties": {"addr:district": "Morbi", "addr:full": "Sardar Nagar, Morbi", "addr:postcode": "363641", "addr:state": "Gujarat", "amenity": "hospital", "name": "Gokul Hospital", "source": "OpenStreetMap contributors", "osm_id": "node/7861787515", "license": "ODbL 1.0", "candidate_only": true}}, {"type": "Feature", "geometry": {"type": "Point", "coordinates": [70.8275261, 22.8113557]}, "properties": {"addr:district": "Morbi", "addr:full": "Sardar Nagar, Morbi", "addr:postcode": "363641", "addr:state": "Gujarat", "amenity": "hospital", "name": "Vedant Hospital", "source": "OpenStreetMap contributors", "osm_id": "node/7861787516", "license": "ODbL 1.0", "candidate_only": true}}, {"type": "Feature", "geometry": {"type": "Point", "coordinates": [70.82718, 22.81183]}, "properties": {"addr:district": "Morbi", "addr:full": "Sardar Nagar, Morbi", "addr:postcode": "363649", "addr:state": "Gujarat", "amenity": "hospital", "name": "Krishna Multispeciality Hospital", "source": "OpenStreetMap contributors", "osm_id": "node/7861787519", "license": "ODbL 1.0", "candidate_only": true}}, {"type": "Feature", "geometry": {"type": "Point", "coordinates": [70.825578, 22.810685]}, "properties": {"addr:district": "Morbi", "addr:full": "Sardar Nagar, Morbi", "addr:postcode": "363641", "addr:state": "Gujarat", "amenity": "hospital", "name": "Aagman Hospital", "source": "OpenStreetMap contributors", "osm_id": "node/7861787520", "license": "ODbL 1.0", "candidate_only": true}}, {"type": "Feature", "geometry": {"type": "Point", "coordinates": [70.829865, 22.814628]}, "properties": {"addr:district": "Morbi", "addr:full": "Sardar Nagar, Morbi", "addr:postcode": "363641", "addr:state": "Gujarat", "amenity": "hospital", "name": "Shivam Hospital", "source": "OpenStreetMap contributors", "osm_id": "node/7861787522", "license": "ODbL 1.0", "candidate_only": true}}, {"type": "Feature", "geometry": {"type": "Point", "coordinates": [70.809975, 22.80873]}, "properties": {"addr:district": "Morbi", "addr:full": "Morbi", "addr:postcode": "363641", "addr:state": "Gujarat", "amenity": "hospital", "name": "Dhruv Children Hospital", "source": "OpenStreetMap contributors", "osm_id": "node/7861787524", "license": "ODbL 1.0", "candidate_only": true}}, {"type": "Feature", "geometry": {"type": "Point", "coordinates": [70.830183, 22.816927]}, "properties": {"addr:district": "Morbi", "addr:full": "Sardar Nagar, Morbi", "addr:postcode": "363641", "addr:state": "Gujarat", "amenity": "hospital", "name": "Mayaan Maternity Hospital", "source": "OpenStreetMap contributors", "osm_id": "node/7861787525", "license": "ODbL 1.0", "candidate_only": true}}, {"type": "Feature", "geometry": {"type": "Point", "coordinates": [70.82904, 22.816226]}, "properties": {"addr:district": "Morbi", "addr:full": "Morbi", "addr:postcode": "363641", "addr:state": "Gujarat", "amenity": "hospital", "name": "Aayush Multispeciality Hospital", "source": "OpenStreetMap contributors", "osm_id": "node/7861787528", "license": "ODbL 1.0", "candidate_only": true}}, {"type": "Feature", "geometry": {"type": "Point", "coordinates": [70.829592, 22.8155419]}, "properties": {"addr:district": "Morbi", "addr:full": "Morbi", "addr:postcode": "363641", "addr:state": "Gujarat", "amenity": "hospital", "name": "Om Hospital", "source": "OpenStreetMap contributors", "osm_id": "node/7861787530", "license": "ODbL 1.0", "candidate_only": true}}, {"type": "Feature", "geometry": {"type": "Point", "coordinates": [70.8233447, 22.82324]}, "properties": {"amenity": "community_centre", "name": "Patel Vadi Vavdi Road \u0aaa\u0a9f\u0ac7\u0ab2 \u0ab5\u0abe\u0aa1\u0ac0 \u0ab5\u0abe\u0ab5\u0aa1\u0ac0 \u0ab0\u0acb\u0aa1", "osm_id": "node/10800853576", "source": "OpenStreetMap contributors", "license": "ODbL 1.0", "candidate_only": true}}, {"type": "Feature", "geometry": {"type": "Point", "coordinates": [70.8262065, 22.7897571]}, "properties": {"amenity": "school", "name": "Krishna School", "name:en": "Krishna School", "name:gu": "\u0a95\u0acd\u0ab0\u0abf\u0ab7\u0acd\u0aa8\u0abe \u0ab8\u0acd\u0a95\u0ac1\u0ab2", "osm_id": "node/10800971402", "source": "OpenStreetMap contributors", "license": "ODbL 1.0", "candidate_only": true}}, {"type": "Feature", "geometry": {"type": "Point", "coordinates": [70.8273314, 22.8049325]}, "properties": {"amenity": "school", "name": "Nilkanth School", "osm_id": "node/11199102229", "source": "OpenStreetMap contributors", "license": "ODbL 1.0", "candidate_only": true}}, {"type": "Feature", "geometry": {"type": "Point", "coordinates": [70.822191, 22.7988313]}, "properties": {"amenity": "school", "name": "Nirmal School", "osm_id": "node/11199407033", "source": "OpenStreetMap contributors", "license": "ODbL 1.0", "candidate_only": true}}]}