{
  "type": "FeatureCollection",
  "features": [
    {
      "type": "Feature",
      "properties": {
        "tier_id": 4,
        "hazard_level": "Extreme Hazard (>3.0m)",
        "depth_range": "6.32m Peak (~6.1m sustained)",
        "color": "#d62828",
        "study_area": "Morbi Floodplain, Gujarat",
        "source": "Machhu-II 2D Hydrodynamic Simulation"
      },
      "geometry": {
        "type": "Polygon",
        "coordinates": [
          [
            [
              70.88799999999999,
              22.7407
            ],
            [
              70.8826,
              22.7548
            ],
            [
              70.87339999999999,
              22.7698
            ],
            [
              70.8604,
              22.7888
            ],
            [
              70.8504,
              22.8068
            ],
            [
              70.8474,
              22.8108
            ],
            [
              70.8444,
              22.814799999999998
            ],
            [
              70.8414,
              22.819799999999997
            ],
            [
              70.8384,
              22.8248
            ],
            [
              70.8334,
              22.8328
            ],
            [
              70.82639999999999,
              22.8448
            ],
            [
              70.8184,
              22.8568
            ],
            [
              70.8064,
              22.8768
            ],
            [
              70.79039999999999,
              22.901799999999998
            ],
            [
              70.7704,
              22.9318
            ],
            [
              70.7534,
              22.9618
            ],
            [
              70.73660000000001,
              22.988200000000003
            ],
            [
              70.7536,
              22.9582
            ],
            [
              70.7736,
              22.9282
            ],
            [
              70.78960000000001,
              22.903200000000002
            ],
            [
              70.80160000000001,
              22.883200000000002
            ],
            [
              70.8096,
              22.8712
            ],
            [
              70.81660000000001,
              22.8592
            ],
            [
              70.8216,
              22.851200000000002
            ],
            [
              70.8246,
              22.8462
            ],
            [
              70.8276,
              22.8412
            ],
            [
              70.8306,
              22.837200000000003
            ],
            [
              70.8336,
              22.8332
            ],
            [
              70.84360000000001,
              22.8152
            ],
            [
              70.8566,
              22.796200000000002
            ],
            [
              70.86580000000001,
              22.781200000000002
            ],
            [
              70.8712,
              22.767100000000003
            ],
            [
              70.88799999999999,
              22.7407
            ]
          ]
        ]
      }
    },
    {
      "type": "Feature",
      "properties": {
        "tier_id": 3,
        "hazard_level": "High Hazard (1.5\u20133.0m)",
        "depth_range": "1.5 \u2013 3.0m",
        "color": "#e63946",
        "study_area": "Morbi Floodplain, Gujarat",
        "source": "Machhu-II 2D Hydrodynamic Simulation"
      },
      "geometry": {
        "type": "Polygon",
        "coordinates": [
          [
            [
              70.88589999999999,
              22.744000000000003
            ],
            [
              70.8805,
              22.758100000000002
            ],
            [
              70.87129999999999,
              22.773100000000003
            ],
            [
              70.8583,
              22.7921
            ],
            [
              70.8483,
              22.810100000000002
            ],
            [
              70.8453,
              22.814100000000003
            ],
            [
              70.8423,
              22.8181
            ],
            [
              70.8393,
              22.8231
            ],
            [
              70.8363,
              22.828100000000003
            ],
            [
              70.8313,
              22.836100000000002
            ],
            [
              70.8243,
              22.848100000000002
            ],
            [
              70.8163,
              22.860100000000003
            ],
            [
              70.8043,
              22.880100000000002
            ],
            [
              70.78829999999999,
              22.9051
            ],
            [
              70.7683,
              22.935100000000002
            ],
            [
              70.7513,
              22.965100000000003
            ],
            [
              70.73870000000001,
              22.9849
            ],
            [
              70.7557,
              22.9549
            ],
            [
              70.7757,
              22.924899999999997
            ],
            [
              70.7917,
              22.8999
            ],
            [
              70.8037,
              22.8799
            ],
            [
              70.8117,
              22.8679
            ],
            [
              70.8187,
              22.8559
            ],
            [
              70.8237,
              22.8479
            ],
            [
              70.8267,
              22.842899999999997
            ],
            [
              70.8297,
              22.837899999999998
            ],
            [
              70.8327,
              22.8339
            ],
            [
              70.8357,
              22.8299
            ],
            [
              70.84570000000001,
              22.811899999999998
            ],
            [
              70.8587,
              22.7929
            ],
            [
              70.8679,
              22.7779
            ],
            [
              70.8733,
              22.7638
            ],
            [
              70.88589999999999,
              22.744000000000003
            ]
          ]
        ]
      }
    },
    {
      "type": "Feature",
      "properties": {
        "tier_id": 2,
        "hazard_level": "Moderate Hazard (0.5\u20131.5m)",
        "depth_range": "0.5 \u2013 1.5m",
        "color": "#f4a261",
        "study_area": "Morbi Floodplain, Gujarat",
        "source": "Machhu-II 2D Hydrodynamic Simulation"
      },
      "geometry": {
        "type": "Polygon",
        "coordinates": [
          [
            [
              70.8838,
              22.747300000000003
            ],
            [
              70.8784,
              22.761400000000002
            ],
            [
              70.86919999999999,
              22.776400000000002
            ],
            [
              70.8562,
              22.7954
            ],
            [
              70.8462,
              22.8134
            ],
            [
              70.8432,
              22.817400000000003
            ],
            [
              70.8402,
              22.8214
            ],
            [
              70.8372,
              22.8264
            ],
            [
              70.8342,
              22.831400000000002
            ],
            [
              70.8292,
              22.8394
            ],
            [
              70.8222,
              22.8514
            ],
            [
              70.8142,
              22.863400000000002
            ],
            [
              70.8022,
              22.8834
            ],
            [
              70.7862,
              22.9084
            ],
            [
              70.7662,
              22.9384
            ],
            [
              70.7492,
              22.968400000000003
            ],
            [
              70.74080000000001,
              22.9816
            ],
            [
              70.7578,
              22.9516
            ],
            [
              70.7778,
              22.921599999999998
            ],
            [
              70.7938,
              22.8966
            ],
            [
              70.8058,
              22.8766
            ],
            [
              70.8138,
              22.8646
            ],
            [
              70.8208,
              22.8526
            ],
            [
              70.8258,
              22.8446
            ],
            [
              70.8288,
              22.839599999999997
            ],
            [
              70.8318,
              22.8346
            ],
            [
              70.8348,
              22.8306
            ],
            [
              70.8378,
              22.8266
            ],
            [
              70.8478,
              22.8086
            ],
            [
              70.8608,
              22.7896
            ],
            [
              70.87,
              22.7746
            ],
            [
              70.8754,
              22.7605
            ],
            [
              70.8838,
              22.747300000000003
            ]
          ]
        ]
      }
    },
    {
      "type": "Feature",
      "properties": {
        "tier_id": 1,
        "hazard_level": "Low Hazard (<0.5m)",
        "depth_range": "0.1 \u2013 0.5m",
        "color": "#2a9d8f",
        "study_area": "Morbi Floodplain, Gujarat",
        "source": "Machhu-II 2D Hydrodynamic Simulation"
      },
      "geometry": {
        "type": "Polygon",
        "coordinates": [
          [
            [
              70.8817,
              22.750600000000002
            ],
            [
              70.8763,
              22.7647
            ],
            [
              70.8671,
              22.779700000000002
            ],
            [
              70.8541,
              22.7987
            ],
            [
              70.8441,
              22.8167
            ],
            [
              70.8411,
              22.820700000000002
            ],
            [
              70.8381,
              22.8247
            ],
            [
              70.8351,
              22.8297
            ],
            [
              70.8321,
              22.8347
            ],
            [
              70.8271,
              22.8427
            ],
            [
              70.8201,
              22.8547
            ],
            [
              70.8121,
              22.8667
            ],
            [
              70.8001,
              22.8867
            ],
            [
              70.7841,
              22.9117
            ],
            [
              70.7641,
              22.9417
            ],
            [
              70.7471,
              22.971700000000002
            ],
            [
              70.7429,
              22.9783
            ],
            [
              70.7599,
              22.9483
            ],
            [
              70.7799,
              22.9183
            ],
            [
              70.7959,
              22.8933
            ],
            [
              70.8079,
              22.8733
            ],
            [
              70.8159,
              22.8613
            ],
            [
              70.8229,
              22.8493
            ],
            [
              70.8279,
              22.8413
            ],
            [
              70.8309,
              22.836299999999998
            ],
            [
              70.8339,
              22.8313
            ],
            [
              70.8369,
              22.8273
            ],
            [
              70.8399,
              22.8233
            ],
            [
              70.8499,
              22.8053
            ],
            [
              70.8629,
              22.7863
            ],
            [
              70.8721,
              22.7713
            ],
            [
              70.8775,
              22.7572
            ],
            [
              70.8817,
              22.750600000000002
            ]
          ]
        ]
      }
    }
  ]
}