{"type": "FeatureCollection", "features": [{"type": "Feature", "geometry": {"type": "Polygon", "coordinates": [[[70.8667192, 22.7667369], [70.8667118, 22.7661951], [70.8655435, 22.7662088], [70.8655362, 22.765667], [70.864952, 22.7656739], [70.8649446, 22.7651321], [70.8637763, 22.7651458], [70.863769, 22.7646041], [70.8626007, 22.7646177], [70.8625933, 22.764076], [70.861425, 22.7640896], [70.8614177, 22.7635479], [70.8608335, 22.7635547], [70.8608262, 22.7630129], [70.8596579, 22.7630265], [70.8596506, 22.7624848], [70.8584823, 22.7624984], [70.8584749, 22.7619567], [70.8578908, 22.7619635], [70.8578835, 22.7614217], [70.8567152, 22.7614353], [70.8567079, 22.7608936], [70.8555396, 22.7609072], [70.8555323, 22.7603654], [70.854364, 22.760379], [70.8543567, 22.7598373], [70.8537725, 22.7598441], [70.8537652, 22.7593023], [70.8525969, 22.7593159], [70.852575, 22.7576907], [70.8508226, 22.757711], [70.8508153, 22.7571693], [70.8519836, 22.7571557], [70.8519763, 22.756614], [70.8531445, 22.7566004], [70.8531518, 22.7571422], [70.853736, 22.7571354], [70.8537286, 22.7565936], [70.8543128, 22.7565869], [70.8542981, 22.7555034], [70.853714, 22.7555102], [70.8536994, 22.7544267], [70.8542835, 22.7544199], [70.8542908, 22.7549616], [70.8560432, 22.7549413], [70.8560505, 22.755483], [70.8554664, 22.7554898], [70.8554737, 22.7560315], [70.8548896, 22.7560383], [70.8549042, 22.7571218], [70.8560725, 22.7571082], [70.8560651, 22.7565665], [70.8566493, 22.7565597], [70.8566419, 22.756018], [70.857226, 22.7560112], [70.8572334, 22.7565529], [70.8584016, 22.7565393], [70.8584089, 22.757081], [70.8589931, 22.7570742], [70.8590151, 22.7586995], [70.8601833, 22.7586858], [70.8601907, 22.7592276], [70.8607748, 22.7592208], [70.8607821, 22.7597625], [70.8613663, 22.7597557], [70.8613736, 22.7602974], [70.8625419, 22.7602838], [70.8625492, 22.7608255], [70.8631334, 22.7608187], [70.8631481, 22.7619022], [70.8643164, 22.7618886], [70.8643016, 22.7608051], [70.8637175, 22.7608119], [70.8637028, 22.7597284], [70.8631187, 22.7597353], [70.8631113, 22.7591935], [70.8625272, 22.7592003], [70.8625198, 22.7586586], [70.8619357, 22.7586654], [70.8619284, 22.7581237], [70.8613442, 22.7581305], [70.8613369, 22.7575888], [70.8607528, 22.7575956], [70.8607307, 22.7559704], [70.8601466, 22.7559772], [70.8601393, 22.7554354], [70.8595552, 22.7554422], [70.8595405, 22.7543588], [70.8601246, 22.754352], [70.8601173, 22.7538102], [70.8589491, 22.7538238], [70.8589417, 22.7532821], [70.8583576, 22.7532889], [70.8583503, 22.7527471], [70.8595185, 22.7527335], [70.8595038, 22.7516501], [70.8600879, 22.7516433], [70.8600806, 22.7511015], [70.8606647, 22.7510947], [70.86065, 22.7500113], [70.8624023, 22.7499908], [70.8623876, 22.7489074], [70.8641399, 22.7488869], [70.8641252, 22.7478034], [70.8617888, 22.7478307], [70.8617595, 22.7456637], [70.8623435, 22.7456569], [70.8623362, 22.7451152], [70.8629203, 22.7451084], [70.8628982, 22.7434832], [70.8634823, 22.7434764], [70.863475, 22.7429346], [70.8623068, 22.7429483], [70.8622995, 22.7424065], [70.8611314, 22.7424201], [70.8611094, 22.7407949], [70.8605253, 22.7408017], [70.860518, 22.74026], [70.8599339, 22.7402668], [70.8599193, 22.7391833], [70.8593352, 22.7391901], [70.8593279, 22.7386484], [70.8587438, 22.7386552], [70.8587365, 22.7381134], [70.8581525, 22.7381202], [70.8581452, 22.7375785], [70.8575611, 22.7375853], [70.8575538, 22.7370435], [70.8569698, 22.7370503], [70.8569551, 22.7359669], [70.8575392, 22.7359601], [70.8575465, 22.7365018], [70.8581305, 22.736495], [70.8581378, 22.7370368], [70.8587219, 22.73703], [70.8587292, 22.7375717], [70.8593132, 22.7375649], [70.8593206, 22.7381066], [70.8599046, 22.7380998], [70.8599119, 22.7386416], [70.860496, 22.7386348], [70.8605033, 22.7391765], [70.8610874, 22.7391697], [70.8610947, 22.7397114], [70.8616787, 22.7397046], [70.8616934, 22.7407881], [70.8622775, 22.7407813], [70.8622848, 22.741323], [70.8628689, 22.7413162], [70.8628762, 22.741858], [70.8634603, 22.7418512], [70.8634676, 22.7423929], [70.8640517, 22.7423861], [70.864059, 22.7429278], [70.8646431, 22.742921], [70.8646578, 22.7440045], [70.8652418, 22.7439977], [70.865286, 22.7472481], [70.86587, 22.7472412], [70.8658627, 22.7466995], [70.8664468, 22.7466927], [70.8664541, 22.7472344], [70.8670382, 22.7472276], [70.8670161, 22.7456024], [70.8676002, 22.7455956], [70.8675928, 22.7450538], [70.8670088, 22.7450607], [70.8669867, 22.7434354], [70.8664026, 22.7434423], [70.8663879, 22.7423588], [70.8669719, 22.742352], [70.8669793, 22.7428937], [70.8681474, 22.7428801], [70.8681548, 22.7434218], [70.8687389, 22.743415], [70.8687536, 22.7444984], [70.8681695, 22.7445053], [70.868199, 22.7466722], [70.8676149, 22.746679], [70.8676296, 22.7477625], [70.8670456, 22.7477693], [70.8670676, 22.7493945], [70.8664836, 22.7494014], [70.8664983, 22.7504848], [70.8659142, 22.7504917], [70.8659363, 22.7521169], [70.8676886, 22.7520964], [70.8676812, 22.7515546], [70.8670971, 22.7515615], [70.8670824, 22.750478], [70.8676665, 22.7504712], [70.8676591, 22.7499294], [70.8682432, 22.7499226], [70.8682285, 22.7488391], [70.8711489, 22.7488049], [70.8711415, 22.7482632], [70.8717256, 22.7482564], [70.8717182, 22.7477146], [70.869966, 22.7477352], [70.8699586, 22.7471934], [70.8711267, 22.7471797], [70.8711194, 22.746638], [70.8722875, 22.7466243], [70.8722801, 22.7460826], [70.8728642, 22.7460757], [70.8728716, 22.7466175], [70.8734556, 22.7466106], [70.873463, 22.7471524], [70.872879, 22.7471592], [70.8728863, 22.7477009], [70.8752226, 22.7476735], [70.8752153, 22.7471318], [70.8781356, 22.7470975], [70.8781208, 22.746014], [70.8787049, 22.7460071], [70.8786901, 22.7449237], [70.8769379, 22.7449443], [70.8769305, 22.7444025], [70.8775145, 22.7443957], [70.8775071, 22.7438539], [70.8780912, 22.7438471], [70.8780986, 22.7443888], [70.8804348, 22.7443613], [70.8804274, 22.7438196], [70.8810115, 22.7438127], [70.8810041, 22.743271], [70.8815881, 22.7432641], [70.8815807, 22.7427224], [70.8809967, 22.7427293], [70.8809892, 22.7421875], [70.8815733, 22.7421806], [70.881551, 22.7405555], [70.8821351, 22.7405486], [70.8821128, 22.7389234], [70.8815288, 22.7389303], [70.8815214, 22.7383885], [70.8821054, 22.7383816], [70.882098, 22.7378399], [70.882682, 22.737833], [70.8826598, 22.7362078], [70.8832438, 22.736201], [70.8832364, 22.7356592], [70.8826523, 22.7356661], [70.8826449, 22.7351244], [70.8832289, 22.7351175], [70.8832141, 22.734034], [70.8837981, 22.7340272], [70.8837833, 22.7329437], [70.8831993, 22.7329506], [70.8831696, 22.7307837], [70.8825856, 22.7307905], [70.8825782, 22.7302488], [70.8819942, 22.7302557], [70.8819867, 22.7297139], [70.8825707, 22.7297071], [70.8825559, 22.7286236], [70.8813879, 22.7286374], [70.8813657, 22.7270122], [70.8837016, 22.7269847], [70.8837387, 22.7296933], [70.8843227, 22.7296864], [70.8843302, 22.7302282], [70.8849142, 22.7302213], [70.8849216, 22.730763], [70.8855056, 22.7307561], [70.885513, 22.7312978], [70.884345, 22.7313116], [70.8843599, 22.7323951], [70.8849439, 22.7323882], [70.8849513, 22.7329299], [70.8843673, 22.7329368], [70.8843821, 22.7340203], [70.8849661, 22.7340134], [70.8849736, 22.7345551], [70.8843896, 22.734562], [70.884397, 22.7351037], [70.883813, 22.7351106], [70.8838204, 22.7356523], [70.8849884, 22.7356386], [70.8850107, 22.7372638], [70.8838427, 22.7372775], [70.8838501, 22.7378193], [70.8844341, 22.7378124], [70.8844415, 22.7383541], [70.8850256, 22.7383472], [70.885033, 22.7388889], [70.884449, 22.7388958], [70.8844564, 22.7394376], [70.8867925, 22.73941], [70.8867851, 22.7388683], [70.885617, 22.7388821], [70.8856022, 22.7377986], [70.8861862, 22.7377917], [70.8861788, 22.73725], [70.8879309, 22.7372293], [70.8879234, 22.7366875], [70.8885074, 22.7366806], [70.8885, 22.7361389], [70.889084, 22.736132], [70.8890691, 22.7350486], [70.8884851, 22.7350555], [70.8884777, 22.7345137], [70.8878937, 22.7345206], [70.8878862, 22.7339789], [70.8873022, 22.7339858], [70.8872948, 22.7334441], [70.8867108, 22.733451], [70.8867033, 22.7329092], [70.8861193, 22.7329161], [70.8861044, 22.7318327], [70.8866885, 22.7318258], [70.8866959, 22.7323675], [70.8872799, 22.7323606], [70.8872873, 22.7329023], [70.8878713, 22.7328954], [70.8878788, 22.7334372], [70.8884628, 22.7334303], [70.8884702, 22.733972], [70.8890542, 22.7339651], [70.8890617, 22.7345068], [70.8908137, 22.7344861], [70.8908063, 22.7339444], [70.8913903, 22.7339375], [70.8913828, 22.7333957], [70.8925509, 22.7333819], [70.8925434, 22.7328402], [70.8937114, 22.7328263], [70.8936965, 22.7317429], [70.8960325, 22.7317152], [70.8960176, 22.7306317], [70.8971856, 22.7306179], [70.8971781, 22.7300761], [70.8977621, 22.7300692], [70.8977696, 22.7306109], [70.8983536, 22.730604], [70.8983685, 22.7316874], [70.8989525, 22.7316805], [70.89896, 22.7322222], [70.900128, 22.7322083], [70.9001355, 22.7327501], [70.9007195, 22.7327431], [70.900712, 22.7322014], [70.901296, 22.7321944], [70.9013035, 22.7327362], [70.9024715, 22.7327223], [70.9024565, 22.7316388], [70.9036245, 22.7316249], [70.9036095, 22.7305415], [70.9041935, 22.7305345], [70.9041785, 22.7294511], [70.9047625, 22.7294441], [70.904755, 22.7289024], [70.905923, 22.7288884], [70.9059004, 22.7272633], [70.9064844, 22.7272563], [70.9064694, 22.7261729], [70.9070534, 22.7261659], [70.9070459, 22.7256242], [70.9076298, 22.7256172], [70.9076148, 22.7245337], [70.9081988, 22.7245268], [70.9081837, 22.7234433], [70.9087677, 22.7234364], [70.9087226, 22.720186], [70.9093065, 22.720179], [70.909299, 22.7196373], [70.909883, 22.7196303], [70.9098679, 22.7185469], [70.9104519, 22.7185399], [70.9105121, 22.7228737], [70.911096, 22.7228667], [70.9111035, 22.7234084], [70.9105196, 22.7234154], [70.9105271, 22.7239571], [70.9099431, 22.7239641], [70.9099582, 22.7250476], [70.9093742, 22.7250546], [70.9093817, 22.7255963], [70.9087978, 22.7256032], [70.9088053, 22.726145], [70.9082213, 22.7261519], [70.9082288, 22.7266937], [70.9076449, 22.7267006], [70.9076599, 22.7277841], [70.9070759, 22.7277911], [70.9070909, 22.7288745], [70.9065069, 22.7288815], [70.906537, 22.7310484], [70.905369, 22.7310623], [70.9053765, 22.731604], [70.9047925, 22.731611], [70.9048225, 22.7337779], [70.9059905, 22.733764], [70.905983, 22.7332222], [70.908319, 22.7331943], [70.9083266, 22.7337361], [70.9077426, 22.733743], [70.9077501, 22.7342848], [70.9065821, 22.7342987], [70.9065896, 22.7348404], [70.9089256, 22.7348125], [70.9089181, 22.7342708], [70.9095021, 22.7342638], [70.9094946, 22.7337221], [70.9100786, 22.7337151], [70.9101012, 22.7353403], [70.9095172, 22.7353473], [70.9095247, 22.735889], [70.9083566, 22.735903], [70.9083642, 22.7364447], [70.9089482, 22.7364377], [70.9089632, 22.7375212], [70.9072112, 22.7375421], [70.9072036, 22.7370004], [70.9077877, 22.7369934], [70.9077801, 22.7364517], [70.9066121, 22.7364656], [70.9066046, 22.7359239], [70.9054366, 22.7359378], [70.9054441, 22.7364795], [70.9013559, 22.7365282], [70.9013484, 22.7359865], [70.9001804, 22.7360004], [70.9001729, 22.7354587], [70.8995889, 22.7354656], [70.8995814, 22.7349239], [70.8989974, 22.7349309], [70.8989899, 22.7343891], [70.8966539, 22.7344169], [70.8966688, 22.7355003], [70.8943328, 22.735528], [70.8943402, 22.7360698], [70.8931722, 22.7360836], [70.8931796, 22.7366253], [70.8925956, 22.7366323], [70.8926031, 22.737174], [70.892019, 22.7371809], [70.892034, 22.7382644], [70.8914499, 22.7382713], [70.8914798, 22.7404382], [70.8920638, 22.7404313], [70.8920489, 22.7393478], [70.8926329, 22.7393409], [70.8926404, 22.7398826], [70.8932244, 22.7398757], [70.8932319, 22.7404174], [70.894984, 22.7403967], [70.8950064, 22.7420218], [70.8944224, 22.7420288], [70.8944298, 22.7425705], [70.8932617, 22.7425843], [70.8932692, 22.7431261], [70.8938532, 22.7431191], [70.8938607, 22.7436609], [70.8944448, 22.7436539], [70.8944522, 22.7441957], [70.8950363, 22.7441887], [70.8950438, 22.7447305], [70.8956278, 22.7447235], [70.8956353, 22.7452653], [70.8962193, 22.7452583], [70.8962343, 22.7463418], [70.8956502, 22.7463487], [70.8956428, 22.745807], [70.8950587, 22.7458139], [70.8950512, 22.7452722], [70.8944672, 22.7452791], [70.8944597, 22.7447374], [70.8927075, 22.7447582], [70.892715, 22.7452999], [70.8921309, 22.7453068], [70.892116, 22.7442234], [70.8927001, 22.7442164], [70.8926926, 22.7436747], [70.8921085, 22.7436816], [70.8921011, 22.7431399], [70.890933, 22.7431537], [70.8909032, 22.7409868], [70.8903191, 22.7409937], [70.8903117, 22.740452], [70.8885595, 22.7404727], [70.888567, 22.7410145], [70.8879829, 22.7410214], [70.8879904, 22.7415631], [70.8874063, 22.74157], [70.8874138, 22.7421117], [70.8868297, 22.7421186], [70.8868446, 22.7432021], [70.8862606, 22.743209], [70.886268, 22.7437507], [70.8856839, 22.7437576], [70.8857509, 22.7486332], [70.8851668, 22.7486401], [70.8851742, 22.7491818], [70.8845901, 22.7491887], [70.8845976, 22.7497304], [70.8840135, 22.7497373], [70.8840209, 22.7502791], [70.8834368, 22.7502859], [70.8834443, 22.7508277], [70.8840283, 22.7508208], [70.8840506, 22.752446], [70.8828824, 22.7524597], [70.8828899, 22.7530015], [70.8817217, 22.7530153], [70.8817143, 22.7524735], [70.8811302, 22.7524804], [70.8811376, 22.7530221], [70.8805535, 22.753029], [70.8805609, 22.7535707], [70.881145, 22.7535639], [70.8811747, 22.7557308], [70.8800065, 22.7557445], [70.8800139, 22.7562863], [70.8788457, 22.7563], [70.8788383, 22.7557583], [70.87767, 22.755772], [70.8776848, 22.7568555], [70.878269, 22.7568486], [70.8782838, 22.7579321], [70.8776997, 22.757939], [70.8777145, 22.7590224], [70.8771304, 22.7590293], [70.8771526, 22.7606545], [70.8759843, 22.7606682], [70.8760139, 22.7628351], [70.8748456, 22.7628489], [70.874853, 22.7633906], [70.8754372, 22.7633837], [70.8754446, 22.7639255], [70.8748604, 22.7639323], [70.8748678, 22.7644741], [70.8742837, 22.7644809], [70.8742763, 22.7639392], [70.8736921, 22.7639461], [70.8736995, 22.7644878], [70.8725312, 22.7645015], [70.8725239, 22.7639598], [70.8713556, 22.7639735], [70.8713703, 22.7650569], [70.8707862, 22.7650638], [70.8707936, 22.7656055], [70.8702094, 22.7656124], [70.8702168, 22.7661541], [70.8678802, 22.7661815], [70.8678875, 22.7667232], [70.8667192, 22.7667369]], [[70.8672813, 22.7651048], [70.8678654, 22.765098], [70.867858, 22.7645563], [70.8684422, 22.7645494], [70.8684274, 22.7634659], [70.8660909, 22.7634933], [70.8660982, 22.764035], [70.8666824, 22.7640282], [70.8666897, 22.7645699], [70.8672739, 22.7645631], [70.8672813, 22.7651048]], [[70.8713482, 22.7634317], [70.8719323, 22.7634249], [70.8719249, 22.7628832], [70.8725091, 22.7628763], [70.8724943, 22.7617928], [70.8719102, 22.7617997], [70.8719175, 22.7623414], [70.8713334, 22.7623483], [70.8713482, 22.7634317]], [[70.8643237, 22.7624303], [70.8649079, 22.7624235], [70.8649005, 22.7618817], [70.8643164, 22.7618886], [70.8643237, 22.7624303]], [[70.8748013, 22.7595985], [70.8753854, 22.7595916], [70.875378, 22.7590499], [70.8747939, 22.7590568], [70.8748013, 22.7595985]], [[70.8549335, 22.7592888], [70.8555176, 22.759282], [70.8555103, 22.7587402], [70.8549262, 22.758747], [70.8549335, 22.7592888]], [[70.8683611, 22.7585903], [70.8689452, 22.7585835], [70.8689378, 22.7580418], [70.8683537, 22.7580486], [70.8683611, 22.7585903]], [[70.8701061, 22.7580281], [70.8706902, 22.7580213], [70.8706828, 22.7574795], [70.871267, 22.7574727], [70.8712448, 22.7558475], [70.8718289, 22.7558406], [70.8718437, 22.7569241], [70.8724278, 22.7569172], [70.8724056, 22.755292], [70.8729898, 22.7552852], [70.8729824, 22.7547435], [70.8735665, 22.7547366], [70.8735517, 22.7536531], [70.8712153, 22.7536805], [70.87123, 22.754764], [70.8706459, 22.7547709], [70.8706755, 22.7569378], [70.8700913, 22.7569446], [70.8701061, 22.7580281]], [[70.8718585, 22.7580076], [70.8724426, 22.7580007], [70.8724352, 22.757459], [70.8718511, 22.7574658], [70.8718585, 22.7580076]], [[70.8607234, 22.7554286], [70.8613075, 22.7554218], [70.8613002, 22.7548801], [70.8607161, 22.7548869], [70.8607234, 22.7554286]], [[70.8735517, 22.7536531], [70.8741358, 22.7536463], [70.874121, 22.7525628], [70.8747051, 22.752556], [70.8746903, 22.7514725], [70.8735221, 22.7514862], [70.8735369, 22.7525697], [70.8729528, 22.7525765], [70.8729602, 22.7531183], [70.8735443, 22.7531114], [70.8735517, 22.7536531]], [[70.8793853, 22.7530428], [70.8799694, 22.7530359], [70.879962, 22.7524942], [70.8793779, 22.752501], [70.8793853, 22.7530428]], [[70.8636072, 22.7526859], [70.8641913, 22.7526791], [70.864184, 22.7521373], [70.8635999, 22.7521441], [70.8636072, 22.7526859]], [[70.8758659, 22.7520005], [70.8776182, 22.7519799], [70.8776108, 22.7514382], [70.8781949, 22.7514313], [70.8781801, 22.7503479], [70.8787641, 22.750341], [70.8787493, 22.7492575], [70.8793334, 22.7492507], [70.8793186, 22.7481672], [70.8787345, 22.7481741], [70.8787271, 22.7476323], [70.878143, 22.7476392], [70.8781504, 22.7481809], [70.8775664, 22.7481878], [70.8775738, 22.7487295], [70.8781578, 22.7487227], [70.8781652, 22.7492644], [70.8775812, 22.7492713], [70.8775886, 22.749813], [70.8764204, 22.7498267], [70.8764278, 22.7503685], [70.8758437, 22.7503753], [70.8758511, 22.7509171], [70.875267, 22.7509239], [70.8752744, 22.7514656], [70.8758585, 22.7514588], [70.8758659, 22.7520005]], [[70.8630084, 22.7516092], [70.8635925, 22.7516024], [70.8635852, 22.7510607], [70.8630011, 22.7510675], [70.8630084, 22.7516092]], [[70.8682653, 22.7515478], [70.8688494, 22.751541], [70.8688346, 22.7504575], [70.8682506, 22.7504643], [70.8682653, 22.7515478]], [[70.8828676, 22.7513763], [70.8834517, 22.7513694], [70.8834443, 22.7508277], [70.8828602, 22.7508346], [70.8828676, 22.7513763]], [[70.8746607, 22.7493056], [70.8752448, 22.7492987], [70.87523, 22.7482153], [70.874646, 22.7482221], [70.8746607, 22.7493056]], [[70.8834145, 22.7486608], [70.8839986, 22.7486539], [70.8839763, 22.7470287], [70.8833923, 22.7470356], [70.8833997, 22.7475773], [70.8828156, 22.7475842], [70.882823, 22.7481259], [70.8834071, 22.748119], [70.8834145, 22.7486608]], [[70.8635264, 22.7467268], [70.8641105, 22.74672], [70.8640811, 22.744553], [70.863497, 22.7445598], [70.8635264, 22.7467268]], [[70.8839615, 22.7459452], [70.8845455, 22.7459383], [70.8845381, 22.7453966], [70.8839541, 22.7454035], [70.8839615, 22.7459452]], [[70.8845307, 22.7448549], [70.8851147, 22.744848], [70.8850999, 22.7437645], [70.8845158, 22.7437714], [70.8845307, 22.7448549]], [[70.8862457, 22.7421255], [70.8868297, 22.7421186], [70.8868223, 22.7415769], [70.8862383, 22.7415838], [70.8862457, 22.7421255]], [[70.8926702, 22.7420495], [70.8932543, 22.7420426], [70.8932468, 22.7415009], [70.8926628, 22.7415078], [70.8926702, 22.7420495]], [[70.8821425, 22.7410903], [70.8827265, 22.7410834], [70.8827191, 22.7405417], [70.8821351, 22.7405486], [70.8821425, 22.7410903]], [[70.8868149, 22.7410352], [70.8879829, 22.7410214], [70.8879755, 22.7404796], [70.8868074, 22.7404935], [70.8868149, 22.7410352]], [[70.8832957, 22.7399931], [70.8838798, 22.7399862], [70.8838649, 22.7389027], [70.8832809, 22.7389096], [70.8832957, 22.7399931]], [[70.8908584, 22.7377365], [70.8914425, 22.7377296], [70.891435, 22.7371878], [70.890851, 22.7371947], [70.8908584, 22.7377365]], [[70.9030855, 22.7348822], [70.9042535, 22.7348683], [70.9042385, 22.7337848], [70.9036545, 22.7337918], [70.903647, 22.7332501], [70.903063, 22.733257], [70.9030855, 22.7348822]]]}, "properties": {"project_id": "machhu-ii", "status": "approximate", "water_level_m": 56.41, "area_m2": 6382800.0, "source_crs": "EPSG:32642", "uncertainty_m": 60.0, "disclaimer": "Approximate, evidence-backed reconstruction suitable for demonstration and screening; not suitable for engineering design, emergency operations, or certification."}}]}